SL-16 R/B               
1 28353U 04021B   15333.56473277  .00000257  00000-0  15960-3 0  9992
2 28353  70.9992 184.6341 0006001 319.7006  40.3670 14.14163553592198
CZ-2C R/B               
1 28480U 04046B   15333.46884793  .00000089  00000-0  48599-4 0  9996
2 28480  98.1626  95.8864 0143381  94.4555 309.8680 14.25551412573636
ARIANE 5 R/B            
1 28499U 04049H   15333.19601160  .00000378  00000-0  54732-4 0  9991
2 28499  98.1341  40.3195 0091722 241.3583 175.8826 14.79569491590296
CZ-2D R/B               
1 28738U 05024B   15333.19926648  .00001906  00000-0  12129-3 0  9993
2 28738  97.5683   8.0218 0013423 143.6493 216.5650 15.09924122570361
SUZAKU (ASTRO-EII)      
1 28773U 05025A   15333.16785333  .00002943  00000-0  15439-3 0  9993
2 28773  31.3845   2.3159 0004799  75.8428 284.2751 15.13818625571446
ALOS (DAICHI)           
1 28931U 06002A   15333.22468997  .00000596  00000-0  12765-3 0  9997
2 28931  97.9128  15.8566 0000838  43.7549 316.3719 14.62045193524751
H-2A R/B                
1 28932U 06002B   15333.22338050  .00001633  00000-0  16124-3 0  9990
2 28932  98.2322 222.1805 0092013   5.4777 107.6668 14.90411600533479
AKARI (ASTRO-F)         
1 28939U 06005A   15333.15339974  .00006483  00000-0  23239-3 0  9991
2 28939  98.2155 105.2095 0121976 343.0218  16.6950 15.22308951526783
RESURS-DK 1             
1 29228U 06021A   15333.57009884  .00000406  00000-0  38654-4 0  9998
2 29228  69.9365  96.6886 0003187 171.6656 271.4633 15.01679540523179
GENESIS 1               
1 29252U 06029A   15332.58481884  .00002864  00000-0  15867-3 0  9997
2 29252  64.5070 334.2576 0047005 248.9582 240.7174 15.15141364515937
CZ-4B R/B               
1 29507U 06046C   15333.11193272  .00000884  00000-0  76344-4 0  9998
2 29507  97.7786 329.5025 0039080   7.8671 352.3156 14.99323905496193
CZ-2C R/B               
1 31114U 07010B   15332.43626656  .00000090  00000-0  61414-4 0  9999
2 31114  98.4115 252.5562 0060828  60.7727 299.9515 14.19173435447137
COSMO-SKYMED 1          
1 31598U 07023A   15333.57202634 -.00002473  00000-0 -30423-3 0  9995
2 31598  97.8793 155.0839 0001305  81.0682 279.0623 14.82150007458662
GENESIS 2               
1 31789U 07028A   15332.85764630  .00002803  00000-0  15842-3 0  9994
2 31789  64.5068   9.3294 0049390 292.2668  67.3219 15.14395068463087
COSMOS 2428             
1 31792U 07029A   15333.39152751  .00000137  00000-0  10000-3 0  9993
2 31792  70.9612 159.1755 0008301  36.5375  35.1405 14.12473377434180
SL-16 R/B               
1 31793U 07029B   15332.88889742  .00000273  00000-0  16791-3 0  9998
2 31793  70.9744 138.6425 0002566 271.8875 258.7887 14.14348712434643
KORONAS-FOTON           
1 33504U 09003A   15332.84840275  .00002011  00000-0  10950-3 0  9991
2 33504  82.4440  75.3822 0018507 265.6339  94.2778 15.13748475375761
TIANGONG 1              
1 37820U 11053A   15333.53982166  .00026972  00000-0  23195-3 0  9994
2 37820  42.7667   3.6566 0014658  90.0624  66.8611 15.68636805239229
CUSAT 2 & FALCON 9 R/B  
1 39271U 13055G   15332.85037313  .00014875  00000-0  40864-3 0  9990
2 39271  80.9731 231.8422 0679669  65.7855 301.2805 14.26052213111540
